H1 CPF 01  gfz 2021 06 19 12  6702 tandemx   
H2 1003001  6202 36605    2021 06 19 12 59 42 2021 06 24 00 00 42   120 1 1  0 0 0
H9
10 0 59387  69102.000000  0    3807831.276  -1945786.343   5390428.797
10 0 59387  69222.000000  0    3050310.714  -1806774.419   5895668.876
10 0 59387  69342.000000  0    2242353.416  -1622511.546   6297221.092
10 0 59387  69462.000000  0    1398852.736  -1395472.351   6588060.515
10 0 59387  69582.000000  0     535258.761  -1129140.003   6763105.273
10 0 59387  69702.000000  0    -332706.791   -827952.028   6819299.641
10 0 59387  69822.000000  0   -1189336.342   -497225.796   6755662.875
10 0 59387  69942.000000  0   -2019219.306   -143064.864   6573305.033
10 0 59387  70062.000000  0   -2807518.062    227753.178   6275409.033
10 0 59387  70182.000000  0   -3540233.435    607905.329   5867179.478
10 0 59387  70302.000000  0   -4204456.218    989665.951   5355757.798
10 0 59387  70422.000000  0   -4788600.094   1365061.631   4750103.300
10 0 59387  70542.000000  0   -5282611.109   1726036.133   4060841.592
10 0 59387  70662.000000  0   -5678148.990   2064621.163   3300081.277
10 0 59387  70782.000000  0   -5968736.099   2373109.551   2481202.881
10 0 59387  70902.000000  0   -6149871.752   2644227.018   1618622.777
10 0 59387  71022.000000  0   -6219108.614   2871298.666    727534.890
10 0 59387  71142.000000  0   -6176086.758   3048405.211   -176364.748
10 0 59387  71262.000000  0   -6022525.587   3170524.981  -1077162.925
10 0 59387  71382.000000  0   -5762173.919   3233657.672  -1959018.323
10 0 59387  71502.000000  0   -5400719.197   3234927.734  -2806449.111
10 0 59387  71622.000000  0   -4945657.277   3172663.421  -3604610.788
10 0 59387  71742.000000  0   -4406128.504   3046450.684  -4339558.564
10 0 59387  71862.000000  0   -3792724.500   2857160.838  -4998488.707
10 0 59387  71982.000000  0   -3117271.473   2606951.788  -5569955.322
10 0 59387  72102.000000  0   -2392596.672   2299244.266  -6044059.317
10 0 59387  72222.000000  0   -1632281.138   1938673.615  -6412610.303
10 0 59387  72342.000000  0    -850403.608   1531017.263  -6669255.697
10 0 59387  72462.000000  0     -61282.994   1083101.156  -6809579.140
10 0 59387  72582.000000  0     720778.006    602686.199  -6831167.650
10 0 59387  72702.000000  0    1481745.635     98336.742  -6733650.519
10 0 59387  72822.000000  0    2208102.137   -420729.036  -6518704.465
10 0 59387  72942.000000  0    2887079.998   -944802.962  -6190027.712
10 0 59387  73062.000000  0    3506883.641  -1463863.610  -5753283.125
10 0 59387  73182.000000  0    4056893.359  -1967762.697  -5216010.774
10 0 59387  73302.000000  0    4527851.082  -2446421.162  -4587509.690
10 0 59387  73422.000000  0    4912021.775  -2890029.662  -3878687.435
10 0 59387  73542.000000  0    5203327.970  -3289249.088  -3101880.668
10 0 59387  73662.000000  0    5397455.501  -3635407.550  -2270647.577
10 0 59387  73782.000000  0    5491925.892  -3920689.028  -1399534.086
10 0 59387  73902.000000  0    5486133.093  -4138309.244   -503819.065
10 0 59387  74022.000000  0    5381343.415  -4282674.093    400757.655
10 0 59387  74142.000000  0    5180657.601  -4349516.540   1298279.193
10 0 59387  74262.000000  0    4888934.357  -4336007.051   2172940.851
10 0 59387  74382.000000  0    4512678.651  -4240833.961   3009337.430
10 0 59387  74502.000000  0    4059897.916  -4064252.908   3792741.602
10 0 59387  74622.000000  0    3539929.842  -3808105.216   4509369.054
10 0 59387  74742.000000  0    2963244.539  -3475803.052   5146624.380
10 0 59387  74862.000000  0    2341228.741  -3072282.301   5693321.733
10 0 59387  74982.000000  0    1685956.184  -2603925.439   6139878.966
10 0 59387  75102.000000  0    1009948.824  -2078455.918   6478479.907
10 0 59387  75222.000000  0     325935.209  -1504807.287   6703205.047
10 0 59387  75342.000000  0    -353390.057   -892968.814   6810129.210
10 0 59387  75462.000000  0   -1015601.191   -253809.832   6797385.472
10 0 59387  75582.000000  0   -1648767.501    401113.270   6665195.503
10 0 59387  75702.000000  0   -2241667.620   1059765.533   6415865.970
10 0 59387  75822.000000  0   -2783988.470   1709853.661   6053750.884
10 0 59387  75942.000000  0   -3266505.825   2339054.810   5585180.560
10 0 59387  76062.000000  0   -3681244.548   2935251.142   5018357.719
10 0 59387  76182.000000  0   -4021615.038   3486765.437   4363219.404
10 0 59387  76302.000000  0   -4282523.070   3982593.093   3631267.742
10 0 59387  76422.000000  0   -4460450.945   4412626.419   2835370.881
10 0 59387  76542.000000  0   -4553506.533   4767865.713   1989536.092
10 0 59387  76662.000000  0   -4561438.836   5040611.336   1108659.610
10 0 59387  76782.000000  0   -4485620.954   5224631.154    208258.575
10 0 59387  76902.000000  0   -4329000.783   5315300.993   -695809.552
10 0 59387  77022.000000  0   -4096018.798   5309714.224  -1587636.924
10 0 59387  77142.000000  0   -3792493.566   5206752.814  -2451554.872
10 0 59387  77262.000000  0   -3425481.715   5007124.500  -3272415.561
10 0 59387  77382.000000  0   -3003114.396   4713361.011  -4035862.044
10 0 59387  77502.000000  0   -2534415.793   4329779.895  -4728578.278
10 0 59387  77622.000000  0   -2029108.694   3862412.926  -5338515.713
10 0 59387  77742.000000  0   -1497412.607   3318904.225  -5855094.979
10 0 59387  77862.000000  0    -949837.257   2708377.852  -6269380.589
10 0 59387  77982.000000  0    -396975.960   2041278.519  -6574224.192
10 0 59387  78102.000000  0     150696.048   1329190.712  -6764376.019
10 0 59387  78222.000000  0     683014.953    584638.488  -6836566.142
10 0 59387  78342.000000  0    1190312.810   -179130.908  -6789555.395
10 0 59387  78462.000000  0    1663589.083   -948378.378  -6624153.304
10 0 59387  78582.000000  0    2094665.892  -1709113.530  -6343204.713
10 0 59387  78702.000000  0    2476327.138  -2447342.399  -5951546.514
10 0 59387  78822.000000  0    2802438.817  -3149319.702  -5455934.564
10 0 59387  78942.000000  0    3068050.118  -3801804.849  -4864938.894
10 0 59387  79062.000000  0    3269470.770  -4392312.965  -4188804.336
10 0 59387  79182.000000  0    3404323.527  -4909355.717  -3439283.487
10 0 59387  79302.000000  0    3471573.085  -5342671.339  -2629442.585
10 0 59387  79422.000000  0    3471528.074  -5683437.479  -1773438.421
10 0 59387  79542.000000  0    3405815.812  -5924458.546   -886271.765
10 0 59387  79662.000000  0    3277330.102  -6060325.083     16478.648
10 0 59387  79782.000000  0    3090151.327  -6087538.005    918936.251
10 0 59387  79902.000000  0    2849442.883  -6004596.419   1805213.235
10 0 59387  80022.000000  0    2561325.395  -5812044.517   2659700.906
10 0 59387  80142.000000  0    2232730.721  -5512475.557   3467352.741
10 0 59387  80262.000000  0    1871241.618  -5110495.598   4213954.633
10 0 59387  80382.000000  0    1484920.739  -4612647.821   4886379.044
10 0 59387  80502.000000  0    1082133.948  -4027298.641   5472816.912
10 0 59387  80622.000000  0     671370.271  -3364488.346   5962984.868
10 0 59387  80742.000000  0     261063.422  -2635749.265   6348300.163
10 0 59387  80862.000000  0    -140579.876  -1853898.998   6622023.876
10 0 59387  80982.000000  0    -525742.086  -1032811.859   6779372.448
10 0 59387  81102.000000  0    -887145.658   -187171.083   6817597.521
10 0 59387  81222.000000  0   -1218189.564    667794.754   6736031.138
10 0 59387  81342.000000  0   -1513069.452   1516585.695   6536096.306
10 0 59387  81462.000000  0   -1766879.342   2343710.543   6221283.693
10 0 59387  81582.000000  0   -1975693.929   3133969.587   5797094.508
10 0 59387  81702.000000  0   -2136629.563   3872735.242   5270949.508
10 0 59387  81822.000000  0   -2247883.630   4546226.477   4652066.294
10 0 59387  81942.000000  0   -2308751.542   5141772.597   3951303.353
10 0 59387  82062.000000  0   -2319620.321   5648059.967   3180973.061
10 0 59387  82182.000000  0   -2281938.856   6055355.417   2354625.628
10 0 59387  82302.000000  0   -2198165.398   6355701.583   1486809.030
10 0 59387  82422.000000  0   -2071692.949   6543079.637    592808.190
10 0 59387  82542.000000  0   -1906754.587   6613534.658   -311630.986
10 0 59387  82662.000000  0   -1708311.461   6565260.778  -1210587.450
10 0 59387  82782.000000  0   -1481925.262   6398642.893  -2088256.897
10 0 59387  82902.000000  0   -1233618.266   6116249.108  -2929238.687
10 0 59387  83022.000000  0    -969726.723   5722781.007  -3718808.797
10 0 59387  83142.000000  0    -696750.977   5224984.884  -4443178.154
10 0 59387  83262.000000  0    -421205.733   4631523.664  -5089730.864
10 0 59387  83382.000000  0    -149473.498   3952815.253  -5647237.746
10 0 59387  83502.000000  0     112335.637   3200839.893  -6106043.434
10 0 59387  83622.000000  0     358514.321   2388920.608  -6458222.789
10 0 59387  83742.000000  0     583875.524   1531483.812  -6697705.570
10 0 59387  83862.000000  0     783856.583    643803.986  -6820371.315
10 0 59387  83982.000000  0     954607.364   -258264.943  -6824112.495
10 0 59387  84102.000000  0    1093061.490  -1158567.466  -6708866.296
10 0 59387  84222.000000  0    1196989.632  -2040928.241  -6476613.813
10 0 59387  84342.000000  0    1265034.876  -2889434.213  -6131350.220
10 0 59387  84462.000000  0    1296729.955  -3688716.799  -5679025.642
10 0 59387  84582.000000  0    1292494.190  -4424230.112  -5127452.559
10 0 59387  84702.000000  0    1253612.236  -5082516.653  -4486181.084
10 0 59387  84822.000000  0    1182193.837  -5651458.939  -3766345.598
10 0 59387  84942.000000  0    1081114.364  -6120511.920  -2980480.443
10 0 59387  85062.000000  0     953938.309  -6480909.450  -2142308.130
10 0 59387  85182.000000  0     804827.041  -6725840.902  -1266502.613
10 0 59387  85302.000000  0     638431.831  -6850591.926   -368430.749
10 0 59387  85422.000000  0     459775.181  -6852644.439    536122.100
10 0 59387  85542.000000  0     274123.512  -6731734.143   1431236.198
99
